GPS BIIR-2  (PRN 13)    
1 24876U 97035A   17304.18074257 -.00000011  00000-0  00000-0 0  9993
2 24876  55.5231 221.7630 0033450  97.7367 262.6687  2.00565149148759
GPS BIIR-3  (PRN 11)    
1 25933U 99055A   17304.81820183 -.00000016  00000-0  00000-0 0  9994
2 25933  51.7295  71.6602 0167759  98.2185 289.6215  2.00555397132390
GPS BIIR-4  (PRN 20)    
1 26360U 00025A   17304.77837240  .00000086  00000-0  00000-0 0  9991
2 26360  53.1415 149.1922 0044124  97.9540   3.7947  2.00553913128082
GPS BIIR-5  (PRN 28)    
1 26407U 00040A   17304.73050773 -.00000031  00000-0  00000-0 0  9995
2 26407  56.5848 339.8229 0201935 270.8961  80.3588  2.00565454126750
GPS BIIR-6  (PRN 14)    
1 26605U 00071A   17304.63251912 -.00000007  00000-0  00000-0 0  9999
2 26605  55.0948 219.4245 0095052 248.8403 299.1249  2.00559245124352
GPS BIIR-7  (PRN 18)    
1 26690U 01004A   17304.57762547  .00000083  00000-0  00000-0 0  9997
2 26690  53.0611 152.1296 0183543 258.4335   3.4927  2.00567365122757
GPS BIIR-8  (PRN 16)    
1 27663U 03005A   17304.26903087 -.00000032  00000-0  00000-0 0  9998
2 27663  56.6522 339.5879 0092433  24.8108 105.8560  2.00550978108112
GPS BIIR-9  (PRN 21)    
1 27704U 03010A   17304.67992410  .00000034  00000-0  00000-0 0  9994
2 27704  53.9442  92.5576 0242739 266.6095 129.4372  2.00574460106928
GPS BIIR-10 (PRN 22)    
1 28129U 03058A   17304.37523666  .00000081  00000-0  00000-0 0  9990
2 28129  52.9524 152.1132 0073801 264.9234  94.3252  2.00561467101597
GPS BIIR-11 (PRN 19)    
1 28190U 04009A   17304.77722456 -.00000060  00000-0  00000-0 0  9995
2 28190  56.0741  40.5187 0096816  61.7816 233.0369  2.00562687 99795
GPS BIIR-12 (PRN 23)    
1 28361U 04023A   17304.61547385 -.00000003  00000-0  00000-0 0  9997
2 28361  54.0857 214.3989 0120074 222.4006 225.7900  2.00565079 97855
GPS BIIR-13 (PRN 02)    
1 28474U 04045A   17304.53534578  .00000034  00000-0  00000-0 0  9990
2 28474  54.3196  92.0884 0174406 248.8504 145.3820  2.00570581 95240
GPS BIIRM-1 (PRN 17)    
1 28874U 05038A   17304.42898803 -.00000063  00000-0  00000-0 0  9992
2 28874  56.2248  37.8132 0122955 255.1208 169.9279  2.00560101 88643
GPS BIIRM-2 (PRN 31)    
1 29486U 06042A   17304.73012331 -.00000010  00000-0  00000-0 0  9998
2 29486  55.3163 276.8225 0087628 345.3693 213.3837  2.00578488 81244
GPS BIIRM-3 (PRN 12)    
1 29601U 06052A   17303.39702671 -.00000034  00000-0  00000+0 0  9997
2 29601  56.6265 338.5397 0063604  50.8418 309.7841  2.00561383 80247
GPS BIIRM-4 (PRN 15)    
1 32260U 07047A   17304.21040861 -.00000003  00000-0  00000-0 0  9992
2 32260  53.2111 210.6428 0097037  34.7237 325.9509  2.00567066 73659
GPS BIIRM-5 (PRN 29)    
1 32384U 07062A   17304.43749664 -.00000062  00000-0  00000-0 0  9992
2 32384  56.2927  38.4039 0002688  16.7287 287.2817  2.00578905 72353
GPS BIIRM-6 (PRN 07)    
1 32711U 08012A   17304.61953637 -.00000011  00000-0  00000-0 0  9993
2 32711  55.0464 276.1609 0112239 214.9080 144.3415  2.00558707 70589
GPS BIIRM-8 (PRN 05)    
1 35752U 09043A   17304.52608192  .00000084  00000-0  00000-0 0  9998
2 35752  54.2714 153.9891 0051351  33.1846 285.2578  2.00573952 60166
GPS BIIF-1  (PRN 25)    
1 36585U 10022A   17304.60882115 -.00000028  00000-0  00000-0 0  9999
2 36585  55.9268 335.2151 0064589  45.1057  80.1001  2.00556873 54407
GPS BIIF-2  (PRN 01)    
1 37753U 11036A   17304.74869525  .00000043  00000-0  00000-0 0  9994
2 37753  55.5232  95.3294 0069723  34.7314 276.8826  2.00563071 46081
GPS BIIF-3  (PRN 24)    
1 38833U 12053A   17304.30626004 -.00000013  00000-0  00000-0 0  9997
2 38833  54.0753 272.9565 0060821  25.0963 335.1866  2.00563630 36353
GPS BIIF-4  (PRN 27)    
1 39166U 13023A   17304.65801671 -.00000065  00000-0  00000-0 0  9995
2 39166  55.9288  34.7748 0049173  19.1778 341.0290  2.00563844 32695
GPS BIIF-5  (PRN 30)    
1 39533U 14008A   17304.65949676 -.00000012  00000-0  00000-0 0  9997
2 39533  54.2261 278.2582 0030599 189.3814 170.5532  2.00570594 26518
GPS BIIF-6  (PRN 06)    
1 39741U 14026A   17303.94604350  .00000045  00000-0  00000-0 0  9991
2 39741  55.5084  94.8830 0008147 283.7145  76.2046  2.00551779 25339
GPS BIIF-7  (PRN 09)    
1 40105U 14045A   17304.53184403 -.00000003  00000-0  00000-0 0  9991
2 40105  54.6103 214.3827 0007284 105.3039 254.8162  2.00554777 22919
GPS BIIF-8  (PRN 03)    
1 40294U 14068A   17304.40567851  .00000084  00000-0  00000-0 0  9991
2 40294  55.0204 155.0807 0009876  20.6553 339.4794  2.00568768 22010
GPS BIIF-9  (PRN 26)    
1 40534U 15013A   17304.54639885 -.00000030  00000-0  00000-0 0  9993
2 40534  54.8767 334.1743 0021795 349.0233  10.9889  2.00577565 18638
GPS BIIF-10  (PRN 08)   
1 40730U 15033A   17304.69987761 -.00000065  00000-0  00000-0 0  9996
2 40730  55.4618  34.3827 0029289 319.8496  39.9580  2.00559410 16829
GPS BIIF-11  (PRN 10)   
1 41019U 15062A   17304.25478059  .00000083  00000-0  00000-0 0  9995
2 41019  55.0280 154.8806 0029589 198.9277 161.0556  2.00563941 14633
GPS BIIF-12  (PRN 32)   
1 41328U 16007A   17304.34627335 -.00000004  00000-0  00000-0 0  9995
2 41328  54.8650 214.6174 0016039 218.0846 141.8408  2.00571831 12692
